{"spkid": "20356991", "covariance": {"labels": ["e", "q", "tp", "node", "peri", "i"], "data": [["6.974510227488936E-15", "-1.523495608870469E-14", "-8.81535278822034E-13", "1.152107960467899E-12", "-8.979802071767787E-13", "-2.061017386546556E-13"], ["-1.523495608870469E-14", "3.344649933300228E-14", "3.23515300777156E-12", "-2.457875002202533E-12", "2.238686102909925E-12", "4.113574969712616E-13"], ["-8.81535278822034E-13", "3.23515300777156E-12", "1.083949796459562E-8", "4.723651567526326E-10", "2.413470800004648E-9", "-3.238746918629579E-10"], ["1.152107960467899E-12", "-2.457875002202533E-12", "4.723651567526326E-10", "1.016421075704527E-8", "-9.823383283164121E-9", "1.76888187064901E-9"], ["-8.979802071767787E-13", "2.238686102909925E-12", "2.413470800004648E-9", "-9.823383283164121E-9", "1.036482728405048E-8", "-1.863623093985943E-9"], ["-2.061017386546556E-13", "4.113574969712616E-13", "-3.238746918629579E-10", "1.76888187064901E-9", "-1.863623093985943E-9", "4.263739822506026E-10"]], "elements": [{"sigma": 8.35135331996494e-08, "name": "e", "units": null, "title": "eccentricity", "value": ".5323226926205386", "label": "e"}, {"title": "perihelion distance", "value": ".9840124368287007", "units": "au", "name": "q", "sigma": 1.82883841093198e-07, "label": "q"}, {"name": "tp", "sigma": 0.000104112909692293, "units": "TDB", "title": "time of perihelion passage", "value": "2454334.604421302109", "label": "tp"}, {"label": "node", "sigma": 0.00010081771053265, "name": "om", "title": "longitude of the ascending node", "value": "299.1490624416334", "units": "deg"}, {"units": "deg", "title": "argument of perihelion", "value": "332.8921808346017", "sigma": 0.000101807795792122, "name": "w", "label": "peri"}, {"units": "deg", "title": "inclination", "value": "8.164860205624349", "name": "i", "sigma": 2.06488252026744e-05, "label": "i"}], "epoch": "2454371.5"}, "elements": [{"label": "e", "title": "eccentricity", "value": ".5342176353554041", "units": null, "sigma": "8.2386E-8", "name": "e"}, {"label": "a", "value": "2.101582231385521", "title": "semi-major axis", "units": "au", "sigma": "3.5377E-8", "name": "a"}, {"sigma": "1.8088E-7", "name": "q", "value": ".9788799412298141", "title": "perihelion distance", "units": "au", "label": "q"}, {"sigma": "2.07E-5", "name": "i", "units": "deg", "title": "inclination; angle with respect to x-y ecliptic plane", "value": "8.192923640642233", "label": "i"}, {"title": "longitude of the ascending node", "value": "298.8450735730357", "units": "deg", "sigma": ".00010057", "name": "om", "label": "node"}, {"sigma": ".00010153", "name": "w", "units": "deg", "value": "333.1761769057386", "title": "argument of perihelion", "label": "peri"}, {"label": "M", "title": "mean anomaly", "value": "57.89033949794305", "units": "deg", "name": "ma", "sigma": "8.2936E-5"}, {"sigma": ".00025189", "name": "tp", "value": "2461021.554160930100", "title": "time of perihelion passage", "units": "TDB", "label": "tp"}, {"sigma": "2.8098E-5", "name": "per", "units": "d", "value": "1112.802284869188", "title": "sidereal orbital period", "label": "period"}, {"label": "n", "sigma": "8.1686E-9", "name": "n", "title": "mean motion", "value": ".3235076031878553", "units": "deg/d"}, {"units": "au", "value": "3.224284521541228", "title": "aphelion distance", "name": "ad", "sigma": "5.4276E-8", "label": "Q"}], "epoch": "2461200.5"}